{
"type": "FeatureCollection",
"name": "koordinat_fmipa",
"crs": { "type": "name", "properties": { "name": "urn:ogc:def:crs:OGC:1.3:CRS84" } },
"features": [
{"type":"Feature","properties":{"id":1,"X":98.7151222,"Y":3.607375},"geometry":{"type":"Point","coordinates":[98.7151222,3.607375]}},
{"type":"Feature","properties":{"id":2,"X":98.7156083,"Y":3.6073639},"geometry":{"type":"Point","coordinates":[98.7156083,3.6073639]}},
{"type":"Feature","properties":{"id":3,"X":98.7156,"Y":3.6068583},"geometry":{"type":"Point","coordinates":[98.7156,3.6068583]}},
{"type":"Feature","properties":{"id":4,"X":98.7151139,"Y":3.6068611},"geometry":{"type":"Point","coordinates":[98.7151139,3.6068611]}},
{"type":"Feature","properties":{"id":5,"X":98.7155444,"Y":3.6071},"geometry":{"type":"Point","coordinates":[98.7155444,3.6071]}},
{"type":"Feature","properties":{"id":6,"X":98.7152389,"Y":3.6071056},"geometry":{"type":"Point","coordinates":[98.7152389,3.6071056]}},
{"type":"Feature","properties":{"id":7,"X":98.7154028,"Y":3.6072556},"geometry":{"type":"Point","coordinates":[98.7154028,3.6072556]}},
{"type":"Feature","properties":{"id":8,"X":98.7153889,"Y":3.60695},"geometry":{"type":"Point","coordinates":[98.7153889,3.60695]}},
{"type":"Feature","properties":{"id":9,"X":98.7147639,"Y":3.6068333},"geometry":{"type":"Point","coordinates":[98.7147639,3.6068333]}},
{"type":"Feature","properties":{"id":10,"X":98.7141556,"Y":3.6066639},"geometry":{"type":"Point","coordinates":[98.7141556,3.6066639]}},
{"type":"Feature","properties":{"id":11,"X":98.7138694,"Y":3.6069944},"geometry":{"type":"Point","coordinates":[98.7138694,3.6069944]}},
{"type":"Feature","properties":{"id":12,"X":98.7143417,"Y":3.6073667},"geometry":{"type":"Point","coordinates":[98.7143417,3.6073667]}},
{"type":"Feature","properties":{"id":13,"X":98.7146833,"Y":3.607625},"geometry":{"type":"Point","coordinates":[98.7146833,3.607625]}},
{"type":"Feature","properties":{"id":14,"X":98.7154056,"Y":3.6066333},"geometry":{"type":"Point","coordinates":[98.7154056,3.6066333]}},
{"type":"Feature","properties":{"id":18,"X":98.7145778,"Y":3.6071972},"geometry":{"type":"Point","coordinates":[98.714576560459278,3.607192059608448]}},
{"type":"Feature","properties":{"id":16,"X":98.7145222,"Y":3.6064889},"geometry":{"type":"Point","coordinates":[98.714513480833844,3.60649887312284]}},
{"type":"Feature","properties":{"id":17,"X":98.7145167,"Y":3.6065861},"geometry":{"type":"Point","coordinates":[98.714515549018287,3.606569191393881]}},
{"type":"Feature","properties":{"id":15,"X":98.7144694,"Y":3.6067028},"geometry":{"type":"Point","coordinates":[98.71446384440722,3.606705691567079]}}
]
}
