{
"type": "FeatureCollection",
"name": "edges_raw",
"crs": { "type": "name", "properties": { "name": "urn:ogc:def:crs:OGC:1.3:CRS84" } },
"xy_coordinate_resolution": 1e-09,
"features": [
{"type":"Feature","properties":{"fid":1},"geometry":{"type":"LineString","coordinates":[[98.715515712,3.607228439],[98.715545985,3.60719772],[98.7155444,3.6071],[98.71554427,3.607091254]]}},
{"type":"Feature","properties":{"fid":1},"geometry":{"type":"LineString","coordinates":[[98.71554427,3.607091254],[98.715543314,3.607026766],[98.715515712,3.606987589]]}},
{"type":"Feature","properties":{"fid":1},"geometry":{"type":"LineString","coordinates":[[98.715515712,3.606987589],[98.7156,3.6068583],[98.715655725,3.606785472]]}},
{"type":"Feature","properties":{"fid":1},"geometry":{"type":"LineString","coordinates":[[98.7153889,3.60695],[98.715462289,3.606946632],[98.715515712,3.606987589]]}},
{"type":"Feature","properties":{"fid":1},"geometry":{"type":"LineString","coordinates":[[98.7153889,3.60695],[98.715310033,3.606948412],[98.715267294,3.606984028]]}},
{"type":"Feature","properties":{"fid":1},"geometry":{"type":"LineString","coordinates":[[98.715267294,3.606984028],[98.7151139,3.6068611],[98.71501487,3.606808176]]}},
{"type":"Feature","properties":{"fid":1},"geometry":{"type":"LineString","coordinates":[[98.7152389,3.6071056],[98.715236131,3.607024986],[98.715267294,3.606984028]]}},
{"type":"Feature","properties":{"fid":1},"geometry":{"type":"LineString","coordinates":[[98.7152389,3.6071056],[98.715242364,3.607188817],[98.715287773,3.607236898]]}},
{"type":"Feature","properties":{"fid":1},"geometry":{"type":"LineString","coordinates":[[98.715287773,3.607236898],[98.7151222,3.607375],[98.715016651,3.607496445]]}},
{"type":"Feature","properties":{"fid":1},"geometry":{"type":"LineString","coordinates":[[98.715515712,3.607228439],[98.715491004,3.607249363],[98.7154028,3.6072556],[98.715312704,3.607254705]]}},
{"type":"Feature","properties":{"fid":1},"geometry":{"type":"LineString","coordinates":[[98.715312704,3.607254705],[98.715287773,3.607236898]]}},
{"type":"Feature","properties":{"fid":1},"geometry":{"type":"LineString","coordinates":[[98.715515712,3.607228439],[98.7156083,3.6073639],[98.715713675,3.607457676]]}},
{"type":"Feature","properties":{"fid":1},"geometry":{"type":"LineString","coordinates":[[98.7154056,3.6066333],[98.71542601,3.606632018]]}},
{"type":"Feature","properties":{"fid":1},"geometry":{"type":"LineString","coordinates":[[98.71542601,3.606632018],[98.715438737,3.606631218],[98.715506141,3.606626983]]}},
{"type":"Feature","properties":{"fid":1},"geometry":{"type":"LineString","coordinates":[[98.715506141,3.606626983],[98.715507921,3.606703556]]}},
{"type":"Feature","properties":{"fid":1},"geometry":{"type":"LineString","coordinates":[[98.715507921,3.606703556],[98.715602302,3.606739171],[98.715655725,3.606785472]]}},
{"type":"Feature","properties":{"fid":1},"geometry":{"type":"LineString","coordinates":[[98.7153889,3.60695],[98.71538861,3.606908345],[98.715432821,3.606832459]]}},
{"type":"Feature","properties":{"fid":1},"geometry":{"type":"LineString","coordinates":[[98.715432821,3.606832459],[98.715448104,3.606806228],[98.715507921,3.606703556]]}},
{"type":"Feature","properties":{"fid":1},"geometry":{"type":"LineString","coordinates":[[98.715425486,3.606538501],[98.715426006,3.60663188],[98.71542601,3.606632018]]}},
{"type":"Feature","properties":{"fid":1},"geometry":{"type":"LineString","coordinates":[[98.71542601,3.606632018],[98.715430367,3.606760223]]}},
{"type":"Feature","properties":{"fid":1},"geometry":{"type":"LineString","coordinates":[[98.715430367,3.606760223],[98.715432821,3.606832459]]}},
{"type":"Feature","properties":{"fid":1},"geometry":{"type":"LineString","coordinates":[[98.7147639,3.6068333],[98.714767342,3.606906119]]}},
{"type":"Feature","properties":{"fid":1},"geometry":{"type":"LineString","coordinates":[[98.714767342,3.606906119],[98.714934735,3.606902557]]}},
{"type":"Feature","properties":{"fid":1},"geometry":{"type":"LineString","coordinates":[[98.714934735,3.606902557],[98.71501487,3.606808176]]}},
{"type":"Feature","properties":{"fid":1},"geometry":{"type":"LineString","coordinates":[[98.71501487,3.606808176],[98.715050485,3.606765438]]}},
{"type":"Feature","properties":{"fid":1},"geometry":{"type":"LineString","coordinates":[[98.715050485,3.606765438],[98.715430367,3.606760223]]}},
{"type":"Feature","properties":{"fid":1},"geometry":{"type":"LineString","coordinates":[[98.714767342,3.606906119],[98.714717481,3.606907009],[98.714720152,3.606970227]]}},
{"type":"Feature","properties":{"fid":1},"geometry":{"type":"LineString","coordinates":[[98.714720152,3.606970227],[98.714571409,3.606972976]]}},
{"type":"Feature","properties":{"fid":1},"geometry":{"type":"LineString","coordinates":[[98.714571409,3.606972976],[98.714532575,3.606973693]]}},
{"type":"Feature","properties":{"fid":1},"geometry":{"type":"LineString","coordinates":[[98.714532575,3.606973693],[98.714286534,3.60697824]]}},
{"type":"Feature","properties":{"fid":1},"geometry":{"type":"LineString","coordinates":[[98.714286534,3.60697824],[98.714281331,3.606836562]]}},
{"type":"Feature","properties":{"fid":1},"geometry":{"type":"LineString","coordinates":[[98.714281331,3.606836562],[98.714274959,3.606663043],[98.7141556,3.6066639],[98.714075979,3.60666365]]}},
{"type":"Feature","properties":{"fid":1},"geometry":{"type":"LineString","coordinates":[[98.714286534,3.60697824],[98.714122345,3.606980959]]}},
{"type":"Feature","properties":{"fid":1},"geometry":{"type":"LineString","coordinates":[[98.714122345,3.606980959],[98.714017637,3.606982692],[98.714017637,3.606825984]]}},
{"type":"Feature","properties":{"fid":1},"geometry":{"type":"LineString","coordinates":[[98.714017637,3.606825984],[98.713866271,3.606829546],[98.7138694,3.6069944],[98.713869833,3.607103785]]}},
{"type":"Feature","properties":{"fid":1},"geometry":{"type":"LineString","coordinates":[[98.714286534,3.60697824],[98.714290868,3.607168502]]}},
{"type":"Feature","properties":{"fid":1},"geometry":{"type":"LineString","coordinates":[[98.714290868,3.607168502],[98.714294019,3.607306866]]}},
{"type":"Feature","properties":{"fid":1},"geometry":{"type":"LineString","coordinates":[[98.714294019,3.607306866],[98.714295438,3.60736912]]}},
{"type":"Feature","properties":{"fid":1},"geometry":{"type":"LineString","coordinates":[[98.714295438,3.60736912],[98.7143417,3.6073667]]}},
{"type":"Feature","properties":{"fid":1},"geometry":{"type":"LineString","coordinates":[[98.713869833,3.607103785],[98.713964724,3.607101362]]}},
{"type":"Feature","properties":{"fid":1},"geometry":{"type":"LineString","coordinates":[[98.713964724,3.607101362],[98.714122048,3.607097345]]}},
{"type":"Feature","properties":{"fid":1},"geometry":{"type":"LineString","coordinates":[[98.714122048,3.607097345],[98.714288314,3.6070931]]}},
{"type":"Feature","properties":{"fid":1},"geometry":{"type":"LineString","coordinates":[[98.713869833,3.607103785],[98.713832437,3.607105565]]}},
{"type":"Feature","properties":{"fid":1},"geometry":{"type":"LineString","coordinates":[[98.713832437,3.607105565],[98.713835998,3.607463501]]}},
{"type":"Feature","properties":{"fid":1},"geometry":{"type":"LineString","coordinates":[[98.713835998,3.607463501],[98.714297218,3.607454597]]}},
{"type":"Feature","properties":{"fid":1},"geometry":{"type":"LineString","coordinates":[[98.714297218,3.607454597],[98.714295438,3.60736912]]}},
{"type":"Feature","properties":{"fid":1},"geometry":{"type":"LineString","coordinates":[[98.714571409,3.606972976],[98.71457656,3.60719206],[98.714580361,3.607305012]]}},
{"type":"Feature","properties":{"fid":1},"geometry":{"type":"LineString","coordinates":[[98.714580361,3.607305012],[98.714294019,3.607306866]]}},
{"type":"Feature","properties":{"fid":1},"geometry":{"type":"LineString","coordinates":[[98.714580361,3.607305012],[98.714822546,3.607304122],[98.714859816,3.607341049]]}},
{"type":"Feature","properties":{"fid":1},"geometry":{"type":"LineString","coordinates":[[98.714859816,3.607341049],[98.714921664,3.60740233]]}},
{"type":"Feature","properties":{"fid":1},"geometry":{"type":"LineString","coordinates":[[98.714921664,3.60740233],[98.715016651,3.607496445]]}},
{"type":"Feature","properties":{"fid":1},"geometry":{"type":"LineString","coordinates":[[98.713835998,3.607463501],[98.713815074,3.607463612],[98.713820416,3.607849149],[98.714301225,3.607840246]]}},
{"type":"Feature","properties":{"fid":1},"geometry":{"type":"LineString","coordinates":[[98.714301225,3.607840246],[98.714297218,3.607454597]]}},
{"type":"Feature","properties":{"fid":1},"geometry":{"type":"LineString","coordinates":[[98.714301225,3.607840246],[98.714882647,3.607831342]]}},
{"type":"Feature","properties":{"fid":1},"geometry":{"type":"LineString","coordinates":[[98.714882647,3.607831342],[98.714875524,3.607626553]]}},
{"type":"Feature","properties":{"fid":1},"geometry":{"type":"LineString","coordinates":[[98.714875524,3.607626553],[98.715016651,3.607496445]]}},
{"type":"Feature","properties":{"fid":1},"geometry":{"type":"LineString","coordinates":[[98.7146833,3.607625],[98.714686762,3.607736961],[98.714879086,3.607731618]]}},
{"type":"Feature","properties":{"fid":1},"geometry":{"type":"LineString","coordinates":[[98.714720152,3.606970227],[98.714725049,3.607144854],[98.715097231,3.607137731]]}},
{"type":"Feature","properties":{"fid":1},"geometry":{"type":"LineString","coordinates":[[98.715097231,3.607137731],[98.7152389,3.6071056]]}},
{"type":"Feature","properties":{"fid":1},"geometry":{"type":"LineString","coordinates":[[98.715097231,3.607137731],[98.714921664,3.60740233]]}},
{"type":"Feature","properties":{"fid":1},"geometry":{"type":"LineString","coordinates":[[98.715016651,3.607496445],[98.715135517,3.607615868]]}},
{"type":"Feature","properties":{"fid":1},"geometry":{"type":"LineString","coordinates":[[98.715135517,3.607615868],[98.715272439,3.607474225]]}},
{"type":"Feature","properties":{"fid":1},"geometry":{"type":"LineString","coordinates":[[98.715272439,3.607474225],[98.715342087,3.607402175],[98.715299348,3.607338068],[98.715312704,3.607254705]]}},
{"type":"Feature","properties":{"fid":1},"geometry":{"type":"LineString","coordinates":[[98.715272439,3.607474225],[98.715411537,3.607607855]]}},
{"type":"Feature","properties":{"fid":1},"geometry":{"type":"LineString","coordinates":[[98.715411537,3.607607855],[98.715521055,3.607492105],[98.715647193,3.607598951],[98.715665,3.607508725],[98.715713675,3.607457676]]}},
{"type":"Feature","properties":{"fid":1},"geometry":{"type":"LineString","coordinates":[[98.71554427,3.607091254],[98.715645988,3.607091991]]}},
{"type":"Feature","properties":{"fid":1},"geometry":{"type":"LineString","coordinates":[[98.715645988,3.607091991],[98.715814585,3.607093211]]}},
{"type":"Feature","properties":{"fid":1},"geometry":{"type":"LineString","coordinates":[[98.715814585,3.607093211],[98.715821708,3.607335397]]}},
{"type":"Feature","properties":{"fid":1},"geometry":{"type":"LineString","coordinates":[[98.715821708,3.607335397],[98.715767763,3.607396455]]}},
{"type":"Feature","properties":{"fid":1},"geometry":{"type":"LineString","coordinates":[[98.715767763,3.607396455],[98.715713675,3.607457676]]}},
{"type":"Feature","properties":{"fid":1},"geometry":{"type":"LineString","coordinates":[[98.715655725,3.606785472],[98.715733293,3.60687593]]}},
{"type":"Feature","properties":{"fid":1},"geometry":{"type":"LineString","coordinates":[[98.715733293,3.60687593],[98.715781156,3.606931747]]}},
{"type":"Feature","properties":{"fid":1},"geometry":{"type":"LineString","coordinates":[[98.715781156,3.606931747],[98.715808649,3.606963809]]}},
{"type":"Feature","properties":{"fid":1},"geometry":{"type":"LineString","coordinates":[[98.715808649,3.606963809],[98.715814585,3.607093211]]}},
{"type":"Feature","properties":{"fid":1},"geometry":{"type":"LineString","coordinates":[[98.715781156,3.606931747],[98.715711063,3.607014843]]}},
{"type":"Feature","properties":{"fid":1},"geometry":{"type":"LineString","coordinates":[[98.715711063,3.607014843],[98.715645988,3.607091991]]}},
{"type":"Feature","properties":{"fid":1},"geometry":{"type":"LineString","coordinates":[[98.715711063,3.607014843],[98.715657877,3.606957873],[98.715733293,3.60687593]]}},
{"type":"Feature","properties":{"fid":1},"geometry":{"type":"LineString","coordinates":[[98.715097231,3.607137731],[98.714934735,3.606902557]]}},
{"type":"Feature","properties":{"fid":1},"geometry":{"type":"LineString","coordinates":[[98.714882647,3.607831342],[98.715839587,3.607809851]]}},
{"type":"Feature","properties":{"fid":1},"geometry":{"type":"LineString","coordinates":[[98.715839587,3.607809851],[98.716085263,3.607804333],[98.716062745,3.607380937]]}},
{"type":"Feature","properties":{"fid":1},"geometry":{"type":"LineString","coordinates":[[98.716062745,3.607380937],[98.716025088,3.606672864]]}},
{"type":"Feature","properties":{"fid":1},"geometry":{"type":"LineString","coordinates":[[98.716025088,3.606672864],[98.716006909,3.606331041]]}},
{"type":"Feature","properties":{"fid":1},"geometry":{"type":"LineString","coordinates":[[98.716062745,3.607380937],[98.715936322,3.607383784]]}},
{"type":"Feature","properties":{"fid":1},"geometry":{"type":"LineString","coordinates":[[98.715936322,3.607383784],[98.715818147,3.607386445]]}},
{"type":"Feature","properties":{"fid":1},"geometry":{"type":"LineString","coordinates":[[98.715818147,3.607386445],[98.715839587,3.607809851]]}},
{"type":"Feature","properties":{"fid":1},"geometry":{"type":"LineString","coordinates":[[98.715818147,3.607386445],[98.715821708,3.607335397]]}},
{"type":"Feature","properties":{"fid":1},"geometry":{"type":"LineString","coordinates":[[98.715936322,3.607383784],[98.715912231,3.606637037],[98.715824379,3.606651283]]}},
{"type":"Feature","properties":{"fid":1},"geometry":{"type":"LineString","coordinates":[[98.715824379,3.606651283],[98.71567242,3.606504072],[98.715546579,3.606537313]]}},
{"type":"Feature","properties":{"fid":1},"geometry":{"type":"LineString","coordinates":[[98.715546579,3.606537313],[98.715506141,3.606626983]]}},
{"type":"Feature","properties":{"fid":1},"geometry":{"type":"LineString","coordinates":[[98.715824379,3.606651283],[98.715795224,3.606668776]]}},
{"type":"Feature","properties":{"fid":1},"geometry":{"type":"LineString","coordinates":[[98.715795224,3.606668776],[98.715782828,3.606676214],[98.715744838,3.606632288],[98.715655725,3.606785472]]}},
{"type":"Feature","properties":{"fid":1},"geometry":{"type":"LineString","coordinates":[[98.715795224,3.606668776],[98.715808649,3.606963809]]}},
{"type":"Feature","properties":{"fid":1},"geometry":{"type":"LineString","coordinates":[[98.715645988,3.607091991],[98.715652832,3.607245467],[98.715767763,3.607396455]]}},
{"type":"Feature","properties":{"fid":1},"geometry":{"type":"LineString","coordinates":[[98.715411537,3.607607855],[98.715135517,3.607615868]]}},
{"type":"Feature","properties":{"fid":1},"geometry":{"type":"LineString","coordinates":[[98.715135517,3.607615868],[98.714875524,3.607626553]]}},
{"type":"Feature","properties":{"fid":1},"geometry":{"type":"LineString","coordinates":[[98.714515549,3.606569191],[98.714518479,3.60670708]]}},
{"type":"Feature","properties":{"fid":1},"geometry":{"type":"LineString","coordinates":[[98.714518479,3.60670708],[98.714463844,3.606705692]]}},
{"type":"Feature","properties":{"fid":1},"geometry":{"type":"LineString","coordinates":[[98.714515549,3.606569191],[98.714513481,3.606498873]]}},
{"type":"Feature","properties":{"fid":1},"geometry":{"type":"LineString","coordinates":[[98.714515549,3.606569191],[98.715048072,3.60655123]]}},
{"type":"Feature","properties":{"fid":1},"geometry":{"type":"LineString","coordinates":[[98.715048072,3.60655123],[98.715425486,3.606538501]]}},
{"type":"Feature","properties":{"fid":1},"geometry":{"type":"LineString","coordinates":[[98.715048072,3.60655123],[98.715050485,3.606765438]]}},
{"type":"Feature","properties":{"fid":1},"geometry":{"type":"LineString","coordinates":[[98.714075979,3.60666365],[98.714013037,3.606663452],[98.714017637,3.606825984]]}},
{"type":"Feature","properties":{"fid":1},"geometry":{"type":"LineString","coordinates":[[98.714075979,3.60666365],[98.714080177,3.606808441]]}},
{"type":"Feature","properties":{"fid":1},"geometry":{"type":"LineString","coordinates":[[98.714080177,3.606808441],[98.714080654,3.606824909]]}},
{"type":"Feature","properties":{"fid":1},"geometry":{"type":"LineString","coordinates":[[98.714080654,3.606824909],[98.714081893,3.606867647],[98.714118696,3.606867647]]}},
{"type":"Feature","properties":{"fid":1},"geometry":{"type":"LineString","coordinates":[[98.714118696,3.606867647],[98.714122345,3.606980959]]}},
{"type":"Feature","properties":{"fid":1},"geometry":{"type":"LineString","coordinates":[[98.714017637,3.606825984],[98.714080654,3.606824909]]}},
{"type":"Feature","properties":{"fid":1},"geometry":{"type":"LineString","coordinates":[[98.714080654,3.606824909],[98.714080706,3.606824908]]}},
{"type":"Feature","properties":{"fid":1},"geometry":{"type":"LineString","coordinates":[[98.714281331,3.606836562],[98.714143627,3.606840342]]}},
{"type":"Feature","properties":{"fid":1},"geometry":{"type":"LineString","coordinates":[[98.714143627,3.606840342],[98.714142439,3.606808288],[98.714080177,3.606808441]]}},
{"type":"Feature","properties":{"fid":1},"geometry":{"type":"LineString","coordinates":[[98.714118696,3.606867647],[98.714146001,3.60686646],[98.714143627,3.606840342]]}},
{"type":"Feature","properties":{"fid":1},"geometry":{"type":"LineString","coordinates":[[98.713964724,3.607101362],[98.713968517,3.607173346],[98.714290868,3.607168502]]}},
{"type":"Feature","properties":{"fid":1},"geometry":{"type":"LineString","coordinates":[[98.713833179,3.607151977],[98.713966143,3.607147228]]}},
{"type":"Feature","properties":{"fid":1},"geometry":{"type":"LineString","coordinates":[[98.714875524,3.607626553],[98.714859816,3.607341049]]}},
{"type":"Feature","properties":{"fid":1},"geometry":{"type":"LineString","coordinates":[[98.713832437,3.607105565],[98.713730487,3.607105677],[98.713726777,3.606497914],[98.713824126,3.606502663],[98.71384787,3.606449239],[98.713953529,3.606429057],[98.714012888,3.606459924],[98.714028322,3.606509786],[98.714037819,3.60655015],[98.714120922,3.606548369],[98.714122703,3.606565583],[98.714426324,3.606553415],[98.714428699,3.606570035],[98.714515549,3.606569191]]}},
{"type":"Feature","properties":{"fid":1},"geometry":{"type":"LineString","coordinates":[[98.715425486,3.606538501],[98.715546579,3.606537313]]}},
{"type":"Feature","properties":{"fid":1},"geometry":{"type":"LineString","coordinates":[[98.715914259,3.606677805],[98.716025088,3.606672864]]}},
{"type":"Feature","properties":{"fid":1},"geometry":{"type":"LineString","coordinates":[[98.714122345,3.606980959],[98.714122048,3.607097345]]}},
{"type":"Feature","properties":{"fid":1},"geometry":{"type":"LineString","coordinates":[[98.714518479,3.60670708],[98.714532575,3.606973693]]}},
{"type":"Feature","properties":{"fid":1},"geometry":{"type":"LineString","coordinates":[[98.714532575,3.606973693],[98.714532607,3.606974293]]}}
]
}
