{
"type": "FeatureCollection",
"name": "edges_fmipa",
"crs": { "type": "name", "properties": { "name": "urn:ogc:def:crs:OGC:1.3:CRS84" } },
"features": [
{"type":"Feature","properties":{"id":50,"asal":17,"tujuan":18},"geometry":{"type":"MultiLineString","coordinates":[[[98.714517617202816,3.606560573958711],[98.714531405099095,3.606566089117224],[98.714539677836868,3.606952150213136],[98.714277707807497,3.606943877475366],[98.714288738124523,3.607291332461688],[98.714589314263478,3.607266514248379],[98.714581041525705,3.60718654444994]]]}},
{"type":"Feature","properties":{"id":1,"asal":12,"tujuan":13},"geometry":{"type":"MultiLineString","coordinates":[[[98.714341196641072,3.607361581188653],[98.71434493047542,3.607843245820566],[98.714867667285247,3.607828310483142],[98.714860199616538,3.607783504470871],[98.714684709401809,3.607716295452465],[98.71468844323617,3.607622949593567]]]}},
{"type":"Feature","properties":{"id":2,"asal":13,"tujuan":1},"geometry":{"type":"MultiLineString","coordinates":[[[98.714684709401809,3.607619215759211],[98.71468844323617,3.607716295452465],[98.714852731947829,3.607693892446329],[98.715035689831268,3.607469862384974],[98.715121568021459,3.607369048857365]]]}},
{"type":"Feature","properties":{"id":3,"asal":12,"tujuan":11},"geometry":{"type":"MultiLineString","coordinates":[[[98.71434493047542,3.607357847354297],[98.714348664309782,3.607451193213195],[98.713982748542904,3.60745492704755],[98.713840862837372,3.607305573673314],[98.713844596671734,3.607081543611959],[98.713866999677862,3.606991931587417]]]}},
{"type":"Feature","properties":{"id":4,"asal":10,"tujuan":11},"geometry":{"type":"MultiLineString","coordinates":[[[98.714158238757634,3.606663354164097],[98.714074227484616,3.606762300774529],[98.714111565828176,3.606887384225452],[98.714111565828176,3.607105813535273],[98.713872600429397,3.607107680452451],[98.71386886659505,3.606991931587417]]]}},
{"type":"Feature","properties":{"id":5,"asal":11,"tujuan":10},"geometry":{"type":"MultiLineString","coordinates":[[[98.714152638006098,3.606659620329741],[98.713995816963148,3.606665221081275],[98.714003284631858,3.606835110544469],[98.713863265843514,3.606836977461647],[98.71386886659505,3.606988197753061]]]}},
{"type":"Feature","properties":{"id":6,"asal":12,"tujuan":13},"geometry":{"type":"MultiLineString","coordinates":[[[98.714339329723913,3.607365315023009],[98.714339329723913,3.607285037584357],[98.714839663527613,3.607277569915645],[98.714854598865031,3.60772936387271],[98.714682842484663,3.607733097707066],[98.714682842484663,3.607624816510745]]]}},
{"type":"Feature","properties":{"id":7,"asal":12,"tujuan":1},"geometry":{"type":"MultiLineString","coordinates":[[[98.714335595889537,3.607365315023008],[98.71433186205519,3.607283170667178],[98.714847131196294,3.60727196916411],[98.715037556748456,3.607466128550618],[98.715130902607342,3.607369048857364]]]}},
{"type":"Feature","properties":{"id":8,"asal":1,"tujuan":6},"geometry":{"type":"MultiLineString","coordinates":[[[98.715127168773009,3.607365315023008],[98.715257852975455,3.607268235329754],[98.715239183803675,3.607096478949382]]]}},
{"type":"Feature","properties":{"id":9,"asal":6,"tujuan":4},"geometry":{"type":"MultiLineString","coordinates":[[[98.715242917638037,3.607100212783738],[98.715242917638037,3.606947125575146],[98.715115967269938,3.606857513550604]]]}},
{"type":"Feature","properties":{"id":10,"asal":4,"tujuan":8},"geometry":{"type":"MultiLineString","coordinates":[[[98.715108499601229,3.606850045881892],[98.715250385306746,3.606947125575146],[98.715392271012277,3.606947125575146]]]}},
{"type":"Feature","properties":{"id":11,"asal":8,"tujuan":3},"geometry":{"type":"MultiLineString","coordinates":[[[98.715390404095089,3.606947125575146],[98.715549092055213,3.606950859409502],[98.715601365736191,3.606857513550604]]]}},
{"type":"Feature","properties":{"id":12,"asal":3,"tujuan":5},"geometry":{"type":"MultiLineString","coordinates":[[[98.715601365736191,3.606857513550604],[98.715545358220851,3.606948992492324],[98.715545358220851,3.607096478949382]]]}},
{"type":"Feature","properties":{"id":13,"asal":5,"tujuan":2},"geometry":{"type":"MultiLineString","coordinates":[[[98.715543491303677,3.607100212783738],[98.715549092055213,3.607258900743865],[98.715605099570553,3.607365315023008]]]}},
{"type":"Feature","properties":{"id":14,"asal":2,"tujuan":7},"geometry":{"type":"MultiLineString","coordinates":[[[98.7156088334049,3.607361581188652],[98.715545358220851,3.607257033826686],[98.715399738680972,3.607257033826686]]]}},
{"type":"Feature","properties":{"id":15,"asal":7,"tujuan":1},"geometry":{"type":"MultiLineString","coordinates":[[[98.71540160559816,3.607255166909509],[98.715246651472384,3.607268235329754],[98.715121568021459,3.60737278269172]]]}},
{"type":"Feature","properties":{"id":16,"asal":4,"tujuan":9},"geometry":{"type":"MultiLineString","coordinates":[[[98.715112233435576,3.606857513550604],[98.715050625168701,3.606827642875757],[98.71493861013802,3.606904186480053],[98.714768720674826,3.606907920314409],[98.714764986840464,3.606827642875757]]]}},
{"type":"Feature","properties":{"id":17,"asal":8,"tujuan":14},"geometry":{"type":"MultiLineString","coordinates":[[[98.715387603719378,3.606948992492323],[98.715389470636566,3.606911654148763],[98.715523888673374,3.606710027093544],[98.71551082025313,3.606624148903358],[98.715406272891158,3.606627882737714]]]}},
{"type":"Feature","properties":{"id":18,"asal":14,"tujuan":3},"geometry":{"type":"MultiLineString","coordinates":[[[98.715404405973985,3.60663161657207],[98.715512687170303,3.606624148903358],[98.715523888673374,3.606706293259188],[98.71560416611203,3.606726829348145],[98.715671375130427,3.60679590528373],[98.715606033029204,3.606857513550603]]]}},
{"type":"Feature","properties":{"id":19,"asal":5,"tujuan":3},"geometry":{"type":"MultiLineString","coordinates":[[[98.715545068623115,3.607099663193063],[98.715601867786134,3.607109686574773],[98.71581569992928,3.607101333756682],[98.71581904105652,3.606962676976364],[98.715672031458098,3.606795620614536],[98.715598526658894,3.606857431468412]]]}},
{"type":"Feature","properties":{"id":20,"asal":5,"tujuan":2},"geometry":{"type":"MultiLineString","coordinates":[[[98.715548409750355,3.607096322065827],[98.715546739186735,3.607169826865031],[98.71581569992928,3.607164815174177],[98.71581569992928,3.607340224354096],[98.715705442730467,3.607462175498231],[98.715608550040614,3.607366953371989]]]}},
{"type":"Feature","properties":{"id":21,"asal":9,"tujuan":1},"geometry":{"type":"MultiLineString","coordinates":[[[98.714759578883971,3.606826309488552],[98.714773590651973,3.606906877154516],[98.714934725983895,3.606903374212517],[98.715043317185845,3.607061006602445],[98.715050323069846,3.607260674296353],[98.714969755403885,3.607386780208295],[98.715039814243852,3.607467347874258],[98.715130890735807,3.607365762556304]]]}},
{"type":"Feature","properties":{"id":22,"asal":1,"tujuan":7},"geometry":{"type":"MultiLineString","coordinates":[[[98.715120381909813,3.607372768440301],[98.715004784823861,3.60748486258425],[98.715151908387796,3.607600459670196],[98.715341067255707,3.60739728903429],[98.715302534893723,3.607246662528359],[98.715414629037681,3.607253668412356]]]}},
{"type":"Feature","properties":{"id":23,"asal":9,"tujuan":10},"geometry":{"type":"MultiLineString","coordinates":[[[98.714763790893983,3.606826286096618],[98.714768305537092,3.606912064315706],[98.714682527318004,3.606912064315706],[98.714682527318004,3.606948181460585],[98.71428072408122,3.606952696103695],[98.714278466759666,3.606654729658443],[98.714158828717245,3.606661501623107]]]}},
{"type":"Feature","properties":{"id":24,"asal":11,"tujuan":12},"geometry":{"type":"MultiLineString","coordinates":[[[98.713869090427963,3.606989684535035],[98.713885308732046,3.607151867575907],[98.714286132533061,3.607137966172404],[98.714304667737736,3.607369656230792],[98.714344055047661,3.607365022429625]]]}},
{"type":"Feature","properties":{"id":25,"asal":14,"tujuan":4},"geometry":{"type":"MultiLineString","coordinates":[[[98.715121261089038,3.606855598265184],[98.715030720172734,3.606797981318444],[98.715104799104253,3.606760941852682],[98.715471078265679,3.606752710860291],[98.715466962769483,3.606616899485832],[98.715401114830357,3.606625130478224]]]}},
{"type":"Feature","properties":{"id":26,"asal":3,"tujuan":2},"geometry":{"type":"MultiLineString","coordinates":[[[98.715602259706912,3.606857656013282],[98.71567428089034,3.606793865822248],[98.715820381005287,3.606968774410567],[98.715818323257182,3.607343284564378],[98.715705147111805,3.607458518457858],[98.715604317455004,3.60735974654916]]]}},
{"type":"Feature","properties":{"id":27,"asal":2,"tujuan":7},"geometry":{"type":"MultiLineString","coordinates":[[[98.7156084329512,3.60735974654916],[98.715709262608001,3.607458518457858],[98.715666049897948,3.607493500175521],[98.715663992149842,3.607553174870359],[98.715626952684076,3.607579925595632],[98.7155137765387,3.60748526918313],[98.715415004630003,3.607588156588023],[98.715260673522664,3.607470864946445],[98.715342983446575,3.607396786014922],[98.715310059477005,3.60725480139617],[98.71540471588952,3.607252743648071]]]}},
{"type":"Feature","properties":{"id":28,"asal":6,"tujuan":4},"geometry":{"type":"MultiLineString","coordinates":[[[98.715240096041683,3.607096354792634],[98.71510428466722,3.607121047769808],[98.714939664819397,3.606911157463826],[98.715059014209075,3.606820616547521],[98.715120746652005,3.606857656013282]]]}},
{"type":"Feature","properties":{"id":29,"asal":6,"tujuan":1},"geometry":{"type":"MultiLineString","coordinates":[[[98.715240096041683,3.607102528036928],[98.715100169171023,3.607116932273613],[98.714968473292771,3.607394728266824],[98.715038436728094,3.607458518457858],[98.71512280440011,3.60737003528965]]]}},
{"type":"Feature","properties":{"id":30,"asal":11,"tujuan":12},"geometry":{"type":"MultiLineString","coordinates":[[[98.713869635808507,3.606985236395348],[98.713828480846544,3.607100470288829],[98.713816134357955,3.607853606092646],[98.7143511488634,3.607833028611668],[98.714338802374812,3.607367977541551]]]}},
{"type":"Feature","properties":{"id":31,"asal":11,"tujuan":5},"geometry":{"type":"MultiLineString","coordinates":[[[98.713869635808507,3.606985236395348],[98.713828480846544,3.607104585785024],[98.713824365350348,3.60784949059645],[98.715836842990058,3.607812451130689],[98.715820381005273,3.607104585785024],[98.715548758256361,3.607100470288829]]]}},
{"type":"Feature","properties":{"id":32,"asal":12,"tujuan":5},"geometry":{"type":"MultiLineString","coordinates":[[[98.714347033367204,3.607367977541551],[98.7143511488634,3.607841259604059],[98.715836842990058,3.607808335634493],[98.715816265509076,3.607133394258395],[98.715544642760165,3.607100470288829]]]}},
{"type":"Feature","properties":{"id":33,"asal":11,"tujuan":18},"geometry":{"type":"MultiLineString","coordinates":[[[98.713866828498212,3.606997305573455],[98.713872343656732,3.607153108801449],[98.714288738124466,3.607143457274051],[98.714291495703719,3.607295124133159],[98.714582420315281,3.607274442288735],[98.714575526367142,3.607193093700668]]]}},
{"type":"Feature","properties":{"id":34,"asal":9,"tujuan":18},"geometry":{"type":"MultiLineString","coordinates":[[[98.714765109941041,3.606830472028437],[98.714765109941041,3.606910441826876],[98.714685140142606,3.606915956985389],[98.714690655301126,3.607139320905167],[98.714850594897996,3.607129669377769],[98.715007776915613,3.607205502807323],[98.71499812538822,3.607293745343532],[98.71484507973949,3.607293745343532],[98.71484507973949,3.607273063499108],[98.714578973341233,3.607275821078365],[98.714577594551599,3.607190336121413]]]}},
{"type":"Feature","properties":{"id":35,"asal":9,"tujuan":18},"geometry":{"type":"MultiLineString","coordinates":[[[98.714762352361788,3.606827714449181],[98.714770625099561,3.60690768424762],[98.714682382563353,3.606915956985389],[98.714685140142606,3.606949047936467],[98.714278397202264,3.606949047936467],[98.71429494267781,3.607286851395391],[98.714587246079006,3.607277199867993],[98.714577594551599,3.607188957331784]]]}},
{"type":"Feature","properties":{"id":36,"asal":10,"tujuan":15},"geometry":{"type":"MultiLineString","coordinates":[[[98.714154306135725,3.606663638483417],[98.714278397202278,3.606656744535276],[98.714278397202278,3.606951805515723],[98.714522442966484,3.606942153988325],[98.714523821756103,3.606725684016689],[98.714467291381339,3.606727062806317],[98.71446591259172,3.606702244593008]]]}},
{"type":"Feature","properties":{"id":37,"asal":15,"tujuan":17},"geometry":{"type":"MultiLineString","coordinates":[[[98.714464533802087,3.606702244593008],[98.714468670170973,3.60673257796483],[98.714532094493876,3.60673257796483],[98.714534852073129,3.606567123209439],[98.71451554901833,3.606567123209439]]]}},
{"type":"Feature","properties":{"id":38,"asal":10,"tujuan":17},"geometry":{"type":"MultiLineString","coordinates":[[[98.714155684925359,3.606662259693789],[98.714281154781531,3.606658123324904],[98.714281154781531,3.606947669146838],[98.714529336914623,3.606949047936467],[98.714536230862763,3.60656574441981],[98.714512791439077,3.606564365630182]]]}},
{"type":"Feature","properties":{"id":39,"asal":17,"tujuan":16},"geometry":{"type":"MultiLineString","coordinates":[[[98.71451554901833,3.606564365630182],[98.714512791439077,3.606498183728026]]]}},
{"type":"Feature","properties":{"id":40,"asal":17,"tujuan":9},"geometry":{"type":"MultiLineString","coordinates":[[[98.71451554901833,3.606567123209439],[98.714541746021268,3.606568501999067],[98.714532094493876,3.606950426726095],[98.71468651893224,3.606951805515723],[98.714685140142606,3.606915956985389],[98.714769246309942,3.606904926668362],[98.714769246309942,3.606830472028436]]]}},
{"type":"Feature","properties":{"id":41,"asal":4,"tujuan":17},"geometry":{"type":"MultiLineString","coordinates":[[[98.715112564927367,3.606856669031373],[98.715025701180792,3.606807032604756],[98.71507120123853,3.606728441595945],[98.715067064869643,3.606524380730963],[98.714514170228711,3.606538168627246],[98.714512791439077,3.606567123209439]]]}},
{"type":"Feature","properties":{"id":42,"asal":17,"tujuan":14},"geometry":{"type":"MultiLineString","coordinates":[[[98.714519685387216,3.606565744419811],[98.71451554901833,3.606536789837617],[98.715453125965553,3.606520244362078],[98.715458641124059,3.606626411163454],[98.715407625907815,3.606630547532339]]]}},
{"type":"Feature","properties":{"id":43,"asal":12,"tujuan":18},"geometry":{"type":"MultiLineString","coordinates":[[[98.714576215761952,3.607192404305855],[98.714578973341204,3.607276510473179],[98.71432803362886,3.607286162000577],[98.714341821525139,3.607361995430131]]]}},
{"type":"Feature","properties":{"id":44,"asal":10,"tujuan":14},"geometry":{"type":"MultiLineString","coordinates":[[[98.714157063714978,3.606661570298976],[98.714278397202264,3.606656055140463],[98.714278397202264,3.606945600962397],[98.71468100377372,3.606937328224628],[98.714686518932226,3.606906994852806],[98.714978822333421,3.606890449377267],[98.715111186137733,3.606755327993698],[98.715461398703312,3.606744297676672],[98.715464156282565,3.606622964189385],[98.715406247118182,3.606631236927154]]]}},
{"type":"Feature","properties":{"id":45,"asal":5,"tujuan":8},"geometry":{"type":"MultiLineString","coordinates":[[[98.715545504870633,3.607098301913728],[98.715544126080999,3.60695008202869],[98.715388322853016,3.606947324449433]]]}},
{"type":"Feature","properties":{"id":46,"asal":8,"tujuan":6},"geometry":{"type":"MultiLineString","coordinates":[[[98.715390391037459,3.606948703239062],[98.715240792362792,3.606951460818318],[98.715238034783539,3.607101748887799]]]}},
{"type":"Feature","properties":{"id":47,"asal":6,"tujuan":7},"geometry":{"type":"MultiLineString","coordinates":[[[98.715238724178349,3.607105885256683],[98.715248375705741,3.607264446063933],[98.715403489538929,3.607254105141721]]]}},
{"type":"Feature","properties":{"id":48,"asal":7,"tujuan":5},"geometry":{"type":"MultiLineString","coordinates":[[[98.715401421354485,3.607254794536535],[98.7155482624499,3.607250658167651],[98.715544815475823,3.607098301913728]]]}},
{"type":"Feature","properties":{"id":49,"asal":10,"tujuan":12},"geometry":{"type":"MultiLineString","coordinates":[[[98.714161972591981,3.606659620329741],[98.714275854539835,3.606657753412563],[98.714290789877268,3.607374649608898],[98.714343063558246,3.607365315023009]]]}},
{"type":"Feature","properties":{"id":51,"asal":17,"tujuan":12},"geometry":{"type":"MultiLineString","coordinates":[[[98.714517617202816,3.606566089117224],[98.714536920257601,3.606566089117224],[98.714553465733147,3.60694939263388],[98.71428046538675,3.606952150213136],[98.714285980545256,3.607365787101614],[98.714349404868159,3.607365787101614]]]}}
]
}
