{
"type": "FeatureCollection",
"name": "gedung_fmipa",
"crs": { "type": "name", "properties": { "name": "urn:ogc:def:crs:OGC:1.3:CRS84" } },
"features": [
{"type":"Feature","properties":{"fid":1,"id":"005","nama":"Syawal"},"geometry":{"type":"Polygon","coordinates":[[[98.71529496880872,3.607330544306671],[98.715479746189004,3.607326811430302],[98.71558986604191,3.607216691577399],[98.715580533850982,3.606985253242484],[98.715500277009042,3.606918061467832],[98.715285636617793,3.606925527220571],[98.715205379775838,3.607007650500702],[98.715201646899473,3.607037513511658],[98.715149386630301,3.607039379949843],[98.715145653753936,3.60706551008443],[98.715115790742971,3.607082308028093],[98.71511952361935,3.607203626510105],[98.71518858183218,3.607216691577399],[98.715209112652218,3.607211092262844],[98.71529496880872,3.607330544306671]]]}},
{"type":"Feature","properties":{"fid":2,"id":"001","nama":"Gedung Fisika"},"geometry":{"type":"Polygon","coordinates":[[[98.714988872946421,3.607416400463172],[98.715117657181167,3.607533986068814],[98.71527630442688,3.607425732654096],[98.715324831819672,3.607367873070368],[98.715308033876013,3.607352941564889],[98.715364027021565,3.607313746363008],[98.715240842101366,3.607196160757366],[98.715190448270377,3.607222290891953],[98.715082194855654,3.607287616228421],[98.714988872946421,3.607416400463172]]]}},
{"type":"Feature","properties":{"fid":3,"id":"002","nama":"Gedung Biologi"},"geometry":{"type":"Polygon","coordinates":[[[98.715470413998091,3.607380938137661],[98.715552537278228,3.607466794294162],[98.715561869469141,3.607453729226868],[98.715591732480107,3.607494790866934],[98.71578024273677,3.607377205261292],[98.715899694780589,3.607267085408389],[98.715873564646003,3.607242821711986],[98.715836235882307,3.607222290891953],[98.715854900264162,3.607199893633736],[98.715757845478549,3.607128968982714],[98.715724249591219,3.607164431308225],[98.715686920827522,3.607142034050007],[98.715589866041924,3.60720549294829],[98.715477879750836,3.607311879924823],[98.715507742761787,3.607330544306671],[98.715470413998091,3.607380938137661]]]}},
{"type":"Feature","properties":{"fid":4,"id":"003","nama":"Gedung Matematika"},"geometry":{"type":"Polygon","coordinates":[[[98.715591732480107,3.607023748530048],[98.715724249591233,3.606932293058993],[98.71573824787761,3.606942558469009],[98.715803573214075,3.606869767379802],[98.71579144136588,3.606852969436139],[98.715849300949614,3.606792310195133],[98.715792374584979,3.606759647526899],[98.71580263999499,3.606750315335975],[98.715716783838488,3.606678457465861],[98.715538538991837,3.606800709166965],[98.715430285577128,3.606918294772607],[98.715591732480107,3.607023748530048]]]}},
{"type":"Feature","properties":{"fid":5,"id":"004","nama":"Gedung Kimia"},"geometry":{"type":"Polygon","coordinates":[[[98.714982340412774,3.606942558469009],[98.715099926018411,3.607050811883727],[98.715168984231255,3.607026548187325],[98.715286569836891,3.606972421479965],[98.715402289004359,3.606862301627062],[98.715368693117028,3.606836171492476],[98.715415354071652,3.60679510985241],[98.715327631476967,3.606711120134094],[98.715310833533294,3.606722318763203],[98.71526790545505,3.606675657808583],[98.715206312994951,3.606737250268681],[98.715094326703863,3.606808174919704],[98.714965542469116,3.606933226278085],[98.714982340412774,3.606942558469009]]]}},
{"type":"Feature","properties":{"fid":6,"id":"011","nama":"Gedung Bilingual"},"geometry":{"type":"Polygon","coordinates":[[[98.715107391771156,3.606770846156008],[98.715467614340824,3.606754048212344],[98.715460148588079,3.606517010562876],[98.715096193142045,3.606535674944723],[98.715107391771156,3.606770846156008]]]}},
{"type":"Feature","properties":{"fid":7,"id":"006","nama":"Lab. Kimia"},"geometry":{"type":"Polygon","coordinates":[[[98.71499727191825,3.606540341040185],[98.715004737670981,3.606900563609851],[98.714549326753897,3.606917361553514],[98.714545593877531,3.606596334185729],[98.714588521955775,3.60659260130936],[98.714590388393958,3.606540341040185],[98.71499727191825,3.606540341040185]]]}},
{"type":"Feature","properties":{"fid":8,"id":"007","nama":"Lab. Komputer"},"geometry":{"type":"Polygon","coordinates":[[[98.714029523719447,3.606742849583236],[98.714143376448718,3.606740049925959],[98.7141452428869,3.606761513965084],[98.714209635004281,3.606759647526899],[98.714224566509756,3.606733517392312],[98.714377614440906,3.60673258417322],[98.71442054251915,3.606672858151307],[98.714418676080967,3.606551539669295],[98.714031390157629,3.606562738298404],[98.713994994613017,3.606595400966637],[98.714002460365762,3.606731650954127],[98.714029523719447,3.606742849583236]]]}},
{"type":"Feature","properties":{"fid":9,"id":"008","nama":"Lab. Biologi"},"geometry":{"type":"Polygon","coordinates":[[[98.713896073389222,3.60706014407465],[98.714009926118493,3.607067609827389],[98.714043522005824,3.607039613254617],[98.71401925830942,3.606617798224853],[98.713929669276553,3.606623397539408],[98.713929669276553,3.606531942068353],[98.713778487783586,3.606565537955679],[98.713722494638034,3.606636462606701],[98.71373742614351,3.607090007085606],[98.713901672703784,3.607084407771052],[98.713896073389222,3.60706014407465]]]}},
{"type":"Feature","properties":{"fid":10,"id":"009","nama":"Gedung Belajar Bersama"},"geometry":{"type":"Polygon","coordinates":[[[98.71483535840575,3.607277584123179],[98.714839091282116,3.607426899177962],[98.714467670083337,3.60744929643618],[98.714467670083337,3.607596745052779],[98.713885341369689,3.607613542996442],[98.713883474931507,3.607460495065288],[98.714260495444833,3.60744929643618],[98.714256762568453,3.607298114943211],[98.713868543426017,3.607307447134135],[98.713844279729614,3.607294382066842],[98.713842413291431,3.607186128652124],[98.713879742055127,3.607156265641167],[98.714424742005093,3.607137601259319],[98.714428474881458,3.607273851246809],[98.71483535840575,3.607277584123179]]]}},
{"type":"Feature","properties":{"fid":11,"id":"010","nama":"Lab. Fisika"},"geometry":{"type":"Polygon","coordinates":[[[98.714735970572406,3.607661137170154],[98.714808761661615,3.607659270731969],[98.714851689739859,3.60761260977735],[98.714846090425311,3.607427832397055],[98.714573590450328,3.607427832397055],[98.71454559387756,3.60746516116075],[98.71454559387756,3.607659270731969],[98.714612785652207,3.607653671417415],[98.714616518528572,3.607722729630252],[98.714739703448771,3.607715263877513],[98.714735970572406,3.607661137170154]]]}},
{"type":"Feature","properties":{"fid":12,"id":"012","nama":"Rumah Kaca"},"geometry":{"type":"Polygon","coordinates":[[[98.71450865507019,3.607231010415447],[98.714624473398956,3.607233767994703],[98.714609306713044,3.60704625260526],[98.714505897490923,3.607057282922286],[98.714504518701304,3.607122086034814],[98.714432821640628,3.607120707245186],[98.714434200430262,3.607163449723662],[98.714507276280557,3.607163449723662],[98.71450865507019,3.607231010415447]]]}},
{"type":"Feature","properties":{"fid":13,"id":"013","nama":"Rumah Hewan FMIPA"},"geometry":{"type":"Polygon","coordinates":[[[98.714385942793271,3.606723615832248],[98.714536230862748,3.606720858252991],[98.714530715704242,3.606632615716783],[98.714384564003637,3.606635373296039],[98.714385942793271,3.606723615832248]]]}},
{"type":"Feature","properties":{"fid":14,"id":"014","nama":"Taman Biologi"},"geometry":{"type":"Polygon","coordinates":[[[98.714026078700272,3.606571948973139],[98.714423170113221,3.606558161076857],[98.714420412533954,3.606624342979013],[98.714588624868611,3.6066188278205],[98.714583109710091,3.606536100442804],[98.715096019451806,3.606525070125778],[98.715098777031059,3.606298948626744],[98.714015048383246,3.606304463785257],[98.714026078700272,3.606571948973139]]]}}
]
}
